ELYSIUM STAR 2 & LFF    
1 43760U 18099C   24161.22014617  .00045244  00000+0  17812-2 0  9993
2 43760  97.5168 228.7773 0004863 288.3130  71.7578 15.25467372302024
